ORBCOMM FM20 [+]        
1 25416U 98046D   23291.39942763  .00001492  00000+0  57391-3 0  9998
2 25416  44.9943 172.9294 0001232  15.5721 344.5164 14.34504981316956
ORBCOMM FM16 [-]        
1 25417U 98046E   23291.19965286  .00002140  00000+0  79004-3 0  9998
2 25417  44.9931 170.9634 0003513 107.8579 252.2651 14.35217350316802
ORBCOMM FM15 [-]        
1 25418U 98046F   23291.39800619  .00001587  00000+0  60174-3 0  9991
2 25418  44.9965 173.6314 0002940 109.7278 250.3886 14.34972715317010
ORBCOMM FM14 [-]        
1 25419U 98046G   23291.40525666  .00002204  00000+0  81452-3 0  9999
2 25419  44.9957 172.9395 0002139  85.2405  84.6138 14.35086069317021
ORBCOMM FM13 [+]        
1 25420U 98046H   23291.04958691  .00001797  00000+0  68049-3 0  9992
2 25420  44.9968 178.4792 0004210  93.4419 266.6909 14.34541729315827
ORBCOMM FM21 [-]        
1 25475U 98053A   23291.20653608  .00001899  00000+0  71591-3 0  9997
2 25475  45.0083 261.8458 0001820 310.5001  49.5688 14.34560294309864
ORBCOMM FM22 [-]        
1 25476U 98053B   23291.17790359  .00002326  00000+0  85943-3 0  9991
2 25476  45.0078 259.9716 0002338 359.0735   1.0107 14.34928806310207
ORBCOMM FM23 [-]        
1 25477U 98053C   23290.67915136  .00002243  00000+0  83728-3 0  9995
2 25477  45.0084 266.7744 0002033 337.7832  22.2927 14.34535207309937
